{"type": "FeatureCollection", "features": [ {"type": "Feature", "properties": {"norad_id": 66442, "name": "STARLINK-34724", "group": "last-30-days", "lat": 8.140850515811012, "lon": -133.45549061962834, "alt_km": 442.93496593747386, "timestamp": "2025-12-11T08:58:25.853291+00:00", "meta": {"OBJECT_NAME": "STARLINK-34724", "OBJECT_ID": "2025-259W", "EPOCH": "2025-12-11T04:00:01.998720", "MEAN_MOTION": 15.40628973, "ECCENTRICITY": 0.0001265, "INCLINATION": 43.0006, "RA_OF_ASC_NODE": 56.569, "ARG_OF_PERICENTER": 265.2302, "MEAN_ANOMALY": 192.035, "EPHEMERIS_TYPE": 0, "CLASSIFICATION_TYPE": "U", "NORAD_CAT_ID": 66442, "ELEMENT_SET_NO": 999, "REV_AT_EPOCH": 602, "BSTAR": 0.001983, "MEAN_MOTION_DOT": 0.00083244, "MEAN_MOTION_DDOT": 0}, "tle": {"line1": "1 66442U 25259W   25345.16668980  .00083244  00000+0  19830-2 0  9991", "line2": "2 66442  43.0006  56.5690 0001265 265.2302 192.0350 15.40628973  6025"}}, "geometry": {"type": "Point", "coordinates": [-133.45549061962834, 8.140850515811012]}}, {"type": "Feature", "properties": {"norad_id": 66443, "name": "STARLINK-35219", "group": "last-30-days", "lat": -0.2967863904253487, "lon": -124.33764736448751, "alt_km": 443.98868293921714, "timestamp": "2025-12-11T08:58:25.853302+00:00", "meta": {"OBJECT_NAME": "STARLINK-35219", "OBJECT_ID": "2025-259X", "EPOCH": "2025-12-11T04:00:01.998720", "MEAN_MOTION": 15.40584461, "ECCENTRICITY": 7.88e-05, "INCLINATION": 43.0004, "RA_OF_ASC_NODE": 56.5381, "ARG_OF_PERICENTER": 261.5806, "MEAN_ANOMALY": 208.1283, "EPHEMERIS_TYPE": 0, "CLASSIFICATION_TYPE": "U", "NORAD_CAT_ID": 66443, "ELEMENT_SET_NO": 999, "REV_AT_EPOCH": 592, "BSTAR": 0.0027034, "MEAN_MOTION_DOT": 0.00113884, "MEAN_MOTION_DDOT": 0}, "tle": {"line1": "1 66443U 25259X   25345.16668980  .00113884  00000+0  27034-2 0  9991", "line2": "2 66443  43.0004  56.5381 0000788 261.5806 208.1283 15.40584461  5923"}}, "geometry": {"type": "Point", "coordinates": [-124.33764736448751, -0.2967863904253487]}}, {"type": "Feature", "properties": {"norad_id": 66444, "name": "STARLINK-35360", "group": "last-30-days", "lat": -21.982185401347778, "lon": -99.06668694456926, "alt_km": 435.7311127331868, "timestamp": "2025-12-11T08:58:25.853313+00:00", "meta": {"OBJECT_NAME": "STARLINK-35360", "OBJECT_ID": "2025-259Y", "EPOCH": "2025-12-11T04:00:01.998720", "MEAN_MOTION": 15.44974346, "ECCENTRICITY": 0.0001291, "INCLINATION": 43.0005, "RA_OF_ASC_NODE": 56.4652, "ARG_OF_PERICENTER": 272.7969, "MEAN_ANOMALY": 226.8799, "EPHEMERIS_TYPE": 0, "CLASSIFICATION_TYPE": "U", "NORAD_CAT_ID": 66444, "ELEMENT_SET_NO": 999, "REV_AT_EPOCH": 602, "BSTAR": -0.047626, "MEAN_MOTION_DOT": -0.02043428, "MEAN_MOTION_DDOT": 0}, "tle": {"line1": "1 66444U 25259Y   25345.16668980 -.02043428  00000+0 -47626-1 0  9990", "line2": "2 66444  43.0005  56.4652 0001291 272.7969 226.8799 15.44974346  6029"}}, "geometry": {"type": "Point", "coordinates": [-99.06668694456926, -21.982185401347778]}}, {"type": "Feature", "properties": {"norad_id": 66445, "name": "STARLINK-34698", "group": "last-30-days", "lat": -8.647703540847733, "lon": -115.29367628438361, "alt_km": 442.6905458819874, "timestamp": "2025-12-11T08:58:25.853326+00:00", "meta": {"OBJECT_NAME": "STARLINK-34698", "OBJECT_ID": "2025-259Z", "EPOCH": "2025-12-11T04:00:01.998720", "MEAN_MOTION": 15.42394429, "ECCENTRICITY": 0.0001695, "INCLINATION": 43.0008, "RA_OF_ASC_NODE": 56.5099, "ARG_OF_PERICENTER": 282.5391, "MEAN_ANOMALY": 198.5196, "EPHEMERIS_TYPE": 0, "CLASSIFICATION_TYPE": "U", "NORAD_CAT_ID": 66445, "ELEMENT_SET_NO": 999, "REV_AT_EPOCH": 592, "BSTAR": -0.054464, "MEAN_MOTION_DOT": -0.02128478, "MEAN_MOTION_DDOT": 0}, "tle": {"line1": "1 66445U 25259Z   25345.16668980 -.02128478  00000+0 -54464-1 0  9998", "line2": "2 66445  43.0008  56.5099 0001695 282.5391 198.5196 15.42394429  5925"}}, "geometry": {"type": "Point", "coordinates": [-115.29367628438361, -8.647703540847733]}}, {"type": "Feature", "properties": {"norad_id": 66446, "name": "STARLINK-34986", "group": "last-30-days", "lat": -15.906003957320054, "lon": -106.90565186157858, "alt_km": 438.9760398301378, "timestamp": "2025-12-11T08:58:25.853338+00:00", "meta": {"OBJECT_NAME": "STARLINK-34986", "OBJECT_ID": "2025-259AA", "EPOCH": "2025-12-11T04:00:01.998720", "MEAN_MOTION": 15.43516105, "ECCENTRICITY": 0.0001726, "INCLINATION": 43.0008, "RA_OF_ASC_NODE": 56.4867, "ARG_OF_PERICENTER": 269.5223, "MEAN_ANOMALY": 221.578, "EPHEMERIS_TYPE": 0, "CLASSIFICATION_TYPE": "U", "NORAD_CAT_ID": 66446, "ELEMENT_SET_NO": 999, "REV_AT_EPOCH": 602, "BSTAR": -0.040424, "MEAN_MOTION_DOT": -0.01659087, "MEAN_MOTION_DDOT": 0}, "tle": {"line1": "1 66446U 25259AA  25345.16668980 -.01659087  00000+0 -40424-1 0  9994", "line2": "2 66446  43.0008  56.4867 0001726 269.5223 221.5780 15.43516105  6028"}}, "geometry": {"type": "Point", "coordinates": [-106.90565186157858, -15.906003957320054]}}, {"type": "Feature", "properties": {"norad_id": 66447, "name": "STARLINK-34851", "group": "last-30-days", "lat": -33.01680634816976, "lon": -80.56782093255995, "alt_km": 416.56805819047986, "timestamp": "2025-12-11T08:58:25.853349+00:00", "meta": {"OBJECT_NAME": "STARLINK-34851", "OBJECT_ID": "2025-259AB", "EPOCH": "2025-12-10T05:41:44.121408", "MEAN_MOTION": 15.50651186, "ECCENTRICITY": 0.0001321, "INCLINATION": 42.9984, "RA_OF_ASC_NODE": 61.8661, "ARG_OF_PERICENTER": 284.8329, "MEAN_ANOMALY": 75.2384, "EPHEMERIS_TYPE": 0, "CLASSIFICATION_TYPE": "U", "NORAD_CAT_ID": 66447, "ELEMENT_SET_NO": 999, "REV_AT_EPOCH": 567, "BSTAR": 0.0017574, "MEAN_MOTION_DOT": 0.00104412, "MEAN_MOTION_DDOT": 0}, "tle": {"line1": "1 66447U 25259AB  25344.23731622  .00104412  00000+0  17574-2 0  9991", "line2": "2 66447  42.9984  61.8661 0001321 284.8329  75.2384 15.50651186  5671"}}, "geometry": {"type": "Point", "coordinates": [-80.56782093255995, -33.01680634816976]}}, {"type": "Feature", "properties": {"norad_id": 66448, "name": "STARLINK-35355", "group": "last-30-days", "lat": -33.719841256601654, "lon": -79.05894112395254, "alt_km": 415.1839655876556, "timestamp": "2025-12-11T08:58:25.853360+00:00", "meta": {"OBJECT_NAME": "STARLINK-35355", "OBJECT_ID": "2025-259AC", "EPOCH": "2025-12-10T13:25:01.560576", "MEAN_MOTION": 15.5060967, "ECCENTRICITY": 0.0004361, "INCLINATION": 43.0057, "RA_OF_ASC_NODE": 59.9766, "ARG_OF_PERICENTER": 272.1256, "MEAN_ANOMALY": 87.9104, "EPHEMERIS_TYPE": 0, "CLASSIFICATION_TYPE": "U", "NORAD_CAT_ID": 66448, "ELEMENT_SET_NO": 999, "REV_AT_EPOCH": 583, "BSTAR": 0.0019215, "MEAN_MOTION_DOT": 0.00114197, "MEAN_MOTION_DDOT": 0}, "tle": {"line1": "1 66448U 25259AC  25344.55904584  .00114197  00000+0  19215-2 0  9991", "line2": "2 66448  43.0057  59.9766 0004361 272.1256  87.9104 15.50609670  5834"}}, "geometry": {"type": "Point", "coordinates": [-79.05894112395254, -33.719841256601654]}}, {"type": "Feature", "properties": {"norad_id": 66449, "name": "STARLINK-34720", "group": "last-30-days", "lat": -33.49469487323667, "lon": -79.53837279358986, "alt_km": 422.09848576400236, "timestamp": "2025-12-11T08:58:25.853372+00:00", "meta": {"OBJECT_NAME": "STARLINK-34720", "OBJECT_ID": "2025-259AD", "EPOCH": "2025-12-11T04:52:25.599648", "MEAN_MOTION": 15.49323292, "ECCENTRICITY": 9.43e-05, "INCLINATION": 42.9984, "RA_OF_ASC_NODE": 56.2087, "ARG_OF_PERICENTER": 176.8465, "MEAN_ANOMALY": 183.24, "EPHEMERIS_TYPE": 0, "CLASSIFICATION_TYPE": "U", "NORAD_CAT_ID": 66449, "ELEMENT_SET_NO": 999, "REV_AT_EPOCH": 582, "BSTAR": -0.015734, "MEAN_MOTION_DOT": -0.00809235, "MEAN_MOTION_DDOT": 0}, "tle": {"line1": "1 66449U 25259AD  25345.20307407 -.00809235  00000+0 -15734-1 0  9993", "line2": "2 66449  42.9984  56.2087 0000943 176.8465 183.2400 15.49323292  5821"}}, "geometry": {"type": "Point", "coordinates": [-79.53837279358986, -33.49469487323667]}}, {"type": "Feature", "properties": {"norad_id": 66450, "name": "STARLINK-35334", "group": "last-30-days", "lat": -35.51136415103429, "lon": -74.83149933991812, "alt_km": 416.2184208348017, "timestamp": "2025-12-11T08:58:25.853383+00:00", "meta": {"OBJECT_NAME": "STARLINK-35334", "OBJECT_ID": "2025-259AE", "EPOCH": "2025-12-10T13:24:02.373120", "MEAN_MOTION": 15.50613633, "ECCENTRICITY": 0.0002029, "INCLINATION": 43.003, "RA_OF_ASC_NODE": 59.9713, "ARG_OF_PERICENTER": 266.842, "MEAN_ANOMALY": 93.2208, "EPHEMERIS_TYPE": 0, "CLASSIFICATION_TYPE": "U", "NORAD_CAT_ID": 66450, "ELEMENT_SET_NO": 999, "REV_AT_EPOCH": 583, "BSTAR": 0.0021725, "MEAN_MOTION_DOT": 0.00129395, "MEAN_MOTION_DDOT": 0}, "tle": {"line1": "1 66450U 25259AE  25344.55836080  .00129395  00000+0  21725-2 0  9994", "line2": "2 66450  43.0030  59.9713 0002029 266.8420  93.2208 15.50613633  5831"}}, "geometry": {"type": "Point", "coordinates": [-74.83149933991812, -35.51136415103429]}}, {"type": "Feature", "properties": {"norad_id": 66454, "name": "VIASAT-3 F2", "group": "last-30-days", "lat": 5.061469263491918, "lon": 44.55953925491465, "alt_km": 16358.481948790264, "timestamp": "2025-12-11T08:58:25.853397+00:00", "meta": {"OBJECT_NAME": "VIASAT-3 F2", "OBJECT_ID": "2025-261A", "EPOCH": "2025-12-08T12:11:15.383616", "MEAN_MOTION": 2.19142646, "ECCENTRICITY": 0.22792154, "INCLINATION": 5.457, "RA_OF_ASC_NODE": 292.6501, "ARG_OF_PERICENTER": 190.5469, "MEAN_ANOMALY": 204.5187, "EPHEMERIS_TYPE": 0, "CLASSIFICATION_TYPE": "U", "NORAD_CAT_ID": 66454, "ELEMENT_SET_NO": 999, "REV_AT_EPOCH": 55, "BSTAR": 0, "MEAN_MOTION_DOT": -8.1e-07, "MEAN_MOTION_DDOT": 0}, "tle": {"line1": "1 66454U 25261A   25342.50781694 -.00000081  00000+0  00000+0 0  9995", "line2": "2 66454   5.4570 292.6501 2279215 190.5469 204.5187  2.19142646   557"}}, "geometry": {"type": "Point", "coordinates": [44.55953925491465, 5.061469263491918]}}]}